$$SOE
2461302.500000000, A.D. 2026-Sep-19 00:00:00.0000, -2.270859252581420E+08, 2.743810015260170E+08, 7.031919619284078E+07,
2461309.500000000, A.D. 2026-Sep-26 00:00:00.0000, -2.357309283414566E+08, 2.663587272436013E+08, 6.841407009468217E+07,
2461316.500000000, A.D. 2026-Oct-03 00:00:00.0000, -2.441352577720041E+08, 2.580645201559605E+08, 6.643903344911124E+07,
2461323.500000000, A.D. 2026-Oct-10 00:00:00.0000, -2.522886564184227E+08, 2.495050845138973E+08, 6.439565020924467E+07,
2461330.500000000, A.D. 2026-Oct-17 00:00:00.0000, -2.601810483502792E+08, 2.406875488757539E+08, 6.228559163236757E+07,
2461337.500000000, A.D. 2026-Oct-24 00:00:00.0000, -2.678025614604489E+08, 2.316194633594093E+08, 6.011063581506556E+07,
2461344.500000000, A.D. 2026-Oct-31 00:00:00.0000, -2.751435502305434E+08, 2.223087954071138E+08, 5.787266687790522E+07,
2461351.500000000, A.D. 2026-Nov-07 00:00:00.0000, -2.821946182046852E+08, 2.127639240942653E+08, 5.557367376343498E+07,
2461358.500000000, A.D. 2026-Nov-14 00:00:00.0000, -2.889466398693368E+08, 2.029936338328103E+08, 5.321574869213908E+07,
2461365.500000000, A.D. 2026-Nov-21 00:00:00.0000, -2.953907836465958E+08, 1.930071081224326E+08, 5.080108549109591E+07,
2461372.500000000, A.D. 2026-Nov-28 00:00:00.0000, -3.015185368916084E+08, 1.828139203249163E+08, 4.833197763652025E+07,
2461379.500000000, A.D. 2026-Dec-05 00:00:00.0000, -3.073217291557801E+08, 1.724240207968349E+08, 4.581081562102430E+07,
2461386.500000000, A.D. 2026-Dec-12 00:00:00.0000, -3.127925534284969E+08, 1.618477234845567E+08, 4.324008388278563E+07,
2461393.500000000, A.D. 2026-Dec-19 00:00:00.0000, -3.179235871305247E+08, 1.510956919944808E+08, 4.062235747253081E+07,
2461400.500000000, A.D. 2026-Dec-26 00:00:00.0000, -3.227078128857995E+08, 1.401789242937806E+08, 3.796029840547137E+07,
2461407.500000000, A.D. 2027-Jan-02 00:00:00.0000, -3.271386386756902E+08, 1.291087358841669E+08, 3.525665166387337E+07,
2461414.500000000, A.D. 2027-Jan-09 00:00:00.0000, -3.312099171379480E+08, 1.178967415121701E+08, 3.251424084973501E+07,
2461421.500000000, A.D. 2027-Jan-16 00:00:00.0000, -3.349159638539420E+08, 1.065548354781100E+08, 2.973596349577815E+07,
2461428.500000000, A.D. 2027-Jan-23 00:00:00.0000, -3.382515744584255E+08, 9.509517056499968E+07, 2.692478604065623E+07,
2461435.500000000, A.D. 2027-Jan-30 00:00:00.0000, -3.412120402710863E+08, 8.353013560662140E+07, 2.408373846414440E+07,
2461442.500000000, A.D. 2027-Feb-06 00:00:00.0000, -3.437931619247549E+08, 7.187233211077766E+07, 2.121590859194261E+07,
2461449.500000000, A.D. 2027-Feb-13 00:00:00.0000, -3.459912613637239E+08, 6.013455124652413E+07, 1.832443623580830E+07,
2461456.500000000, A.D. 2027-Feb-20 00:00:00.0000, -3.478031945007576E+08, 4.832975050765988E+07, 1.541250734661581E+07,
2461463.500000000, A.D. 2027-Feb-27 00:00:00.0000, -3.492263630701093E+08, 3.647102695592445E+07, 1.248334781604464E+07,
2461470.500000000, A.D. 2027-Mar-06 00:00:00.0000, -3.502587225909232E+08, 2.457158909353154E+07, 9.540216834585376E+06,
2461477.500000000, A.D. 2027-Mar-13 00:00:00.0000, -3.508987879750334E+08, 1.264472954145220E+07, 6.586400148884833E+06,
2461484.500000000, A.D. 2027-Mar-20 00:00:00.0000, -3.511456378585073E+08, 7.037978156379318E+05, 3.625203284142823E+06,
2461491.500000000, A.D. 2027-Mar-27 00:00:00.0000, -3.509989174209394E+08, -1.123782721513690E+07, 6.599447001516945E+05,
2461498.500000000, A.D. 2027-Apr-03 00:00:00.0000, -3.504588394661732E+08, -2.316676510195201E+07, -2.306051107974523E+06,
2461505.500000000, A.D. 2027-Apr-10 00:00:00.0000, -3.495261836926807E+08, -3.506966166127056E+07, -5.269460533393977E+06,
2461512.500000000, A.D. 2027-Apr-17 00:00:00.0000, -3.482022941371319E+08, -4.693321677405134E+07, -8.226967773522172E+06,
2461519.500000000, A.D. 2027-Apr-24 00:00:00.0000, -3.464890747335831E+08, -5.874421206716230E+07, -1.117527171605582E+07,
2461526.500000000, A.D. 2027-May-01 00:00:00.0000, -3.443889827240637E+08, -7.048953831621702E+07, -1.411109278656939E+07,
2461533.500000000, A.D. 2027-May-08 00:00:00.0000, -3.419050196595537E+08, -8.215622169030710E+07, -1.703117969227128E+07,
2461540.500000000, A.D. 2027-May-15 00:00:00.0000, -3.390407215438890E+08, -9.373144775888035E+07, -1.993231581556125E+07,
2461547.500000000, A.D. 2027-May-22 00:00:00.0000, -3.358001497514428E+08, -1.052025857340919E+08, -2.281132529635660E+07,
2461554.500000000, A.D. 2027-May-29 00:00:00.0000, -3.321878794428316E+08, -1.165572143058850E+08, -2.566507920355920E+07,
2461561.500000000, A.D. 2027-Jun-05 00:00:00.0000, -3.282089846807035E+08, -1.277831458319586E+08, -2.849050159458531E+07,
2461568.500000000, A.D. 2027-Jun-12 00:00:00.0000, -3.238690223427674E+08, -1.388684483537840E+08, -3.128457521831370E+07,
2461575.500000000, A.D. 2027-Jun-19 00:00:00.0000, -3.191740152602980E+08, -1.498014662903414E+08, -3.404434688479599E+07,
2461582.500000000, A.D. 2027-Jun-26 00:00:00.0000, -3.141304344104894E+08, -1.605708399994280E+08, -3.676693252931187E+07,
2461589.500000000, A.D. 2027-Jul-03 00:00:00.0000, -3.087451801451228E+08, -1.711655241355419E+08, -3.944952196549070E+07,
2461596.500000000, A.D. 2027-Jul-10 00:00:00.0000, -3.030255625358285E+08, -1.815748047423142E+08, -4.208938331571710E+07,
2461603.500000000, A.D. 2027-Jul-17 00:00:00.0000, -2.969792809181041E+08, -1.917883150760032E+08, -4.468386711338633E+07,
2461610.500000000, A.D. 2027-Jul-24 00:00:00.0000, -2.906144025973447E+08, -2.017960501917241E+08, -4.723041008729179E+07,
2461617.500000000, A.D. 2027-Jul-31 00:00:00.0000, -2.839393404254377E+08, -2.115883800364490E+08, -4.972653864013980E+07,
2461624.500000000, A.D. 2027-Aug-07 00:00:00.0000, -2.769628295672404E+08, -2.211560598865227E+08, -5.216987190464614E+07,
2461631.500000000, A.D. 2027-Aug-14 00:00:00.0000, -2.696939058735772E+08, -2.304902383826196E+08, -5.455812418529440E+07,
2461638.500000000, A.D. 2027-Aug-21 00:00:00.0000, -2.621418853560272E+08, -2.395824665377349E+08, -5.688910711899301E+07,
2461645.500000000, A.D. 2027-Aug-28 00:00:00.0000, -2.543163414451421E+08, -2.484247065364059E+08, -5.916073177571003E+07,
2461652.500000000, A.D. 2027-Sep-04 00:00:00.0000, -2.462270813212702E+08, -2.570093378501205E+08, -6.137101039265361E+07,
2461659.500000000, A.D. 2027-Sep-11 00:00:00.0000, -2.378841228137935E+08, -2.653291613634385E+08, -6.351805767568330E+07,
2461666.500000000, A.D. 2027-Sep-18 00:00:00.0000, -2.292976718290488E+08, -2.733774022018490E+08, -6.560009174272789E+07,
2461673.500000000, A.D. 2027-Sep-25 00:00:00.0000, -2.204781001660728E+08, -2.811477113876749E+08, -6.761543474835342E+07,
2461680.500000000, A.D. 2027-Oct-02 00:00:00.0000, -2.114359237287284E+08, -2.886341663504801E+08, -6.956251320777044E+07,
2461687.500000000, A.D. 2027-Oct-09 00:00:00.0000, -2.021817811891837E+08, -2.958312703524356E+08, -7.143985803657286E+07,
2461694.500000000, A.D. 2027-Oct-16 00:00:00.0000, -1.927264131076548E+08, -3.027339509406308E+08, -7.324610432949589E+07,
2461701.500000000, A.D. 2027-Oct-23 00:00:00.0000, -1.830806413059095E+08, -3.093375574924159E+08, -7.497999091526611E+07,
2461708.500000000, A.D. 2027-Oct-30 00:00:00.0000, -1.732553481681888E+08, -3.156378573094865E+08, -7.664035968631215E+07,
2461715.500000000, A.D. 2027-Nov-06 00:00:00.0000, -1.632614570754956E+08, -3.216310292036507E+08, -7.822615452128594E+07,
2461722.500000000, A.D. 2027-Nov-13 00:00:00.0000, -1.531099159969009E+08, -3.273136567238936E+08, -7.973641980688667E+07,
2461729.500000000, A.D. 2027-Nov-20 00:00:00.0000, -1.428116813704850E+08, -3.326827232850615E+08, -8.117029902376896E+07,
2461736.500000000, A.D. 2027-Nov-27 00:00:00.0000, -1.323777006866780E+08, -3.377356063066228E+08, -8.252703332202023E+07,
2461743.500000000, A.D. 2027-Dec-04 00:00:00.0000, -1.218188958207407E+08, -3.424700695162409E+08, -8.380595984329332E+07,
2461750.500000000, A.D. 2027-Dec-11 00:00:00.0000, -1.111461476800286E+08, -3.468842544476398E+08, -8.500650983367199E+07,
2461757.500000000, A.D. 2027-Dec-18 00:00:00.0000, -1.003702818990590E+08, -3.509766715354744E+08, -8.612820661518787E+07,
2461764.500000000, A.D. 2027-Dec-25 00:00:00.0000, -8.950205543210536E+07, -3.547461908715807E+08, -8.717066344480088E+07,
2461771.500000000, A.D. 2028-Jan-01 00:00:00.0000, -7.855214399851631E+07, -3.581920326694797E+08, -8.813358127835922E+07,
$$EOE